[{"OBJECT_NAME":"STARLINK-31313","OBJECT_ID":"2024-041Q","EPOCH":"2026-03-09T00:57:40.391712","MEAN_MOTION":15.27572063,"ECCENTRICITY":0.00018741,"INCLINATION":43.0024,"RA_OF_ASC_NODE":314.2433,"ARG_OF_PERICENTER":256.6446,"MEAN_ANOMALY":103.4196,"EPHEMERIS_TYPE":0,"CLASSIFICATION_TYPE":"U","NORAD_CAT_ID":59088,"ELEMENT_SET_NO":999,"REV_AT_EPOCH":11417,"BSTAR":-0.0001235842,"MEAN_MOTION_DOT":-3.661e-5,"MEAN_MOTION_DDOT":0},{"OBJECT_NAME":"OBJECT B","OBJECT_ID":"2024-203B","EPOCH":"2026-03-09T23:52:52.928256","MEAN_MOTION":15.27506959,"ECCENTRICITY":0.00103904,"INCLINATION":97.4268,"RA_OF_ASC_NODE":139.5887,"ARG_OF_PERICENTER":321.1475,"MEAN_ANOMALY":38.9016,"EPHEMERIS_TYPE":0,"CLASSIFICATION_TYPE":"U","NORAD_CAT_ID":61870,"ELEMENT_SET_NO":999,"REV_AT_EPOCH":7381,"BSTAR":0.00063263842,"MEAN_MOTION_DOT":0.00016997,"MEAN_MOTION_DDOT":0}]
